{
    "week": 293,
    "satellites": [
        {
            "Name": "GSAT0218 (GALILEO 22)",
            "Line1": "1 43058U 17079D   24321.37749245 -.00000004  00000+0  00000+0 0  9990",
            "Line2": "2 43058  55.2758 237.4057 0004314 286.3609  73.6268  1.70473763 43162",
            "SatelliteNumber": "43058",
            "Classification": "U",
            "LaunchYear": "17",
            "LaunchNumber": "079",
            "PieceOfLaunch": "D",
            "EpochYear": "24",
            "EpochDay": 321.37749245,
            "FirstDerivativeMeanMotion": -4e-08,
            "SecondDerivativeMeanMotion": "00000+0",
            "BSTAR": "00000+0",
            "SetNumber": "999",
            "Inclination": 55.2758,
            "RAAN": 237.4057,
            "Eccentricity": 0.0004314,
            "ArgumentOfPerigee": 286.3609,
            "MeanAnomaly": 73.6268,
            "MeanMotion": 1.70473763,
            "RevolutionNumber": "4316"
        },
        {
            "Name": "GSAT0221 (GALILEO 25)",
            "Line1": "1 43564U 18060A   24321.27863279 -.00000087  00000+0  00000+0 0  9997",
            "Line2": "2 43564  57.2959 357.3729 0005926 271.5168  88.4757  1.70475836 39315",
            "SatelliteNumber": "43564",
            "Classification": "U",
            "LaunchYear": "18",
            "LaunchNumber": "060",
            "PieceOfLaunch": "A",
            "EpochYear": "24",
            "EpochDay": 321.27863279,
            "FirstDerivativeMeanMotion": -8.7e-07,
            "SecondDerivativeMeanMotion": "00000+0",
            "BSTAR": "00000+0",
            "SetNumber": "999",
            "Inclination": 57.2959,
            "RAAN": 357.3729,
            "Eccentricity": 0.0005926,
            "ArgumentOfPerigee": 271.5168,
            "MeanAnomaly": 88.4757,
            "MeanMotion": 1.70475836,
            "RevolutionNumber": "3931"
        },
        {
            "Name": "GSAT0222 (GALILEO 26)",
            "Line1": "1 43565U 18060B   24320.91078210 -.00000085  00000+0  00000+0 0  9999",
            "Line2": "2 43565  57.3000 357.3851 0005661 249.1163 110.8844  1.70475609 39351",
            "SatelliteNumber": "43565",
            "Classification": "U",
            "LaunchYear": "18",
            "LaunchNumber": "060",
            "PieceOfLaunch": "B",
            "EpochYear": "24",
            "EpochDay": 320.9107821,
            "FirstDerivativeMeanMotion": -8.5e-07,
            "SecondDerivativeMeanMotion": "00000+0",
            "BSTAR": "00000+0",
            "SetNumber": "999",
            "Inclination": 57.3,
            "RAAN": 357.3851,
            "Eccentricity": 0.0005661,
            "ArgumentOfPerigee": 249.1163,
            "MeanAnomaly": 110.8844,
            "MeanMotion": 1.70475609,
            "RevolutionNumber": "3935"
        },
        {
            "Name": "GSAT0219 (GALILEO 23)",
            "Line1": "1 43566U 18060C   24322.30560546 -.00000090  00000+0  00000+0 0  9999",
            "Line2": "2 43566  57.2989 357.3492 0004889 275.1828  84.8189  1.70475886 39355",
            "SatelliteNumber": "43566",
            "Classification": "U",
            "LaunchYear": "18",
            "LaunchNumber": "060",
            "PieceOfLaunch": "C",
            "EpochYear": "24",
            "EpochDay": 322.30560546,
            "FirstDerivativeMeanMotion": -9e-07,
            "SecondDerivativeMeanMotion": "00000+0",
            "BSTAR": "00000+0",
            "SetNumber": "999",
            "Inclination": 57.2989,
            "RAAN": 357.3492,
            "Eccentricity": 0.0004889,
            "ArgumentOfPerigee": 275.1828,
            "MeanAnomaly": 84.8189,
            "MeanMotion": 1.70475886,
            "RevolutionNumber": "3935"
        },
        {
            "Name": "GSAT0220 (GALILEO 24)",
            "Line1": "1 43567U 18060D   24322.52634319 -.00000091  00000+0  00000+0 0  9995",
            "Line2": "2 43567  57.2985 357.3431 0005673 273.2072  86.7846  1.70475646 39341",
            "SatelliteNumber": "43567",
            "Classification": "U",
            "LaunchYear": "18",
            "LaunchNumber": "060",
            "PieceOfLaunch": "D",
            "EpochYear": "24",
            "EpochDay": 322.52634319,
            "FirstDerivativeMeanMotion": -9.1e-07,
            "SecondDerivativeMeanMotion": "00000+0",
            "BSTAR": "00000+0",
            "SetNumber": "999",
            "Inclination": 57.2985,
            "RAAN": 357.3431,
            "Eccentricity": 0.0005673,
            "ArgumentOfPerigee": 273.2072,
            "MeanAnomaly": 86.7846,
            "MeanMotion": 1.70475646,
            "RevolutionNumber": "3934"
        },
        {
            "Name": "GSAT0223 (GALILEO 27)",
            "Line1": "1 49809U 21116A   24321.79695057 -.00000088  00000+0  00000+0 0  9996",
            "Line2": "2 49809  57.2887 357.2562 0004386 233.9980 128.8868  1.70475808 18341",
            "SatelliteNumber": "49809",
            "Classification": "U",
            "LaunchYear": "21",
            "LaunchNumber": "116",
            "PieceOfLaunch": "A",
            "EpochYear": "24",
            "EpochDay": 321.79695057,
            "FirstDerivativeMeanMotion": -8.8e-07,
            "SecondDerivativeMeanMotion": "00000+0",
            "BSTAR": "00000+0",
            "SetNumber": "999",
            "Inclination": 57.2887,
            "RAAN": 357.2562,
            "Eccentricity": 0.0004386,
            "ArgumentOfPerigee": 233.998,
            "MeanAnomaly": 128.8868,
            "MeanMotion": 1.70475808,
            "RevolutionNumber": "1834"
        },
        {
            "Name": "GSAT0224 (GALILEO 28)",
            "Line1": "1 49810U 21116B   24320.42688207 -.00000083  00000+0  00000+0 0  9991",
            "Line2": "2 49810  57.2896 357.2920 0004296 241.9645 112.5975  1.70475727 18336",
            "SatelliteNumber": "49810",
            "Classification": "U",
            "LaunchYear": "21",
            "LaunchNumber": "116",
            "PieceOfLaunch": "B",
            "EpochYear": "24",
            "EpochDay": 320.42688207,
            "FirstDerivativeMeanMotion": -8.3e-07,
            "SecondDerivativeMeanMotion": "00000+0",
            "BSTAR": "00000+0",
            "SetNumber": "999",
            "Inclination": 57.2896,
            "RAAN": 357.292,
            "Eccentricity": 0.0004296,
            "ArgumentOfPerigee": 241.9645,
            "MeanAnomaly": 112.5975,
            "MeanMotion": 1.70475727,
            "RevolutionNumber": "1833"
        },
        {
            "Name": "GSAT0225 (GALILEO 29)",
            "Line1": "1 59598U 24079A   24321.91901767  .00000036  00000+0  00000+0 0  9997",
            "Line2": "2 59598  54.7787 117.2331 0002677 162.8676  18.4424  1.70474623  3473",
            "SatelliteNumber": "59598",
            "Classification": "U",
            "LaunchYear": "24",
            "LaunchNumber": "079",
            "PieceOfLaunch": "A",
            "EpochYear": "24",
            "EpochDay": 321.91901767,
            "FirstDerivativeMeanMotion": 3.6e-07,
            "SecondDerivativeMeanMotion": "00000+0",
            "BSTAR": "00000+0",
            "SetNumber": "999",
            "Inclination": 54.7787,
            "RAAN": 117.2331,
            "Eccentricity": 0.0002677,
            "ArgumentOfPerigee": 162.8676,
            "MeanAnomaly": 18.4424,
            "MeanMotion": 1.70474623,
            "RevolutionNumber": "347"
        },
        {
            "Name": "GSAT0227 (GALILEO 30)",
            "Line1": "1 59600U 24079C   24320.63373721  .00000045  00000+0  00000+0 0  9992",
            "Line2": "2 59600  54.7752 117.2699 0003753 116.9039 243.1187  1.70474560  3502",
            "SatelliteNumber": "59600",
            "Classification": "U",
            "LaunchYear": "24",
            "LaunchNumber": "079",
            "PieceOfLaunch": "C",
            "EpochYear": "24",
            "EpochDay": 320.63373721,
            "FirstDerivativeMeanMotion": 4.5e-07,
            "SecondDerivativeMeanMotion": "00000+0",
            "BSTAR": "00000+0",
            "SetNumber": "999",
            "Inclination": 54.7752,
            "RAAN": 117.2699,
            "Eccentricity": 0.0003753,
            "ArgumentOfPerigee": 116.9039,
            "MeanAnomaly": 243.1187,
            "MeanMotion": 1.7047456,
            "RevolutionNumber": "350"
        },
        {
            "Name": "GSAT0232 (GALILEO 32)",
            "Line1": "1 61182U 24167A   24321.21686440 -.00000004  00000+0  00000+0 0  9994",
            "Line2": "2 61182  55.3884 237.1378 0015743 276.0571  83.7985  1.73178105  1028",
            "SatelliteNumber": "61182",
            "Classification": "U",
            "LaunchYear": "24",
            "LaunchNumber": "167",
            "PieceOfLaunch": "A",
            "EpochYear": "24",
            "EpochDay": 321.2168644,
            "FirstDerivativeMeanMotion": -4e-08,
            "SecondDerivativeMeanMotion": "00000+0",
            "BSTAR": "00000+0",
            "SetNumber": "999",
            "Inclination": 55.3884,
            "RAAN": 237.1378,
            "Eccentricity": 0.0015743,
            "ArgumentOfPerigee": 276.0571,
            "MeanAnomaly": 83.7985,
            "MeanMotion": 1.73178105,
            "RevolutionNumber": "102"
        }
    ]
}